{
  "type": "FeatureCollection",
  "features": [
    {
      "type": "Feature",
      "properties": {
        "norad_id": 66554,
        "name": "GLOBAL-33",
        "group": "last-30-days",
        "lat": -20.411469118495212,
        "lon": -3.4628278396040906,
        "alt_km": 474.9307519301692,
        "timestamp": "2025-12-18T23:35:47.780195+00:00",
        "meta_object_name": "GLOBAL-33",
        "meta_object_id": "2025-267A",
        "meta_epoch": "2025-12-18T04:57:13.101696",
        "meta_mean_motion": 15.31667898,
        "meta_eccentricity": 0.0003598,
        "meta_inclination": 42.0218,
        "meta_ra_of_asc_node": 25.4335,
        "meta_arg_of_pericenter": 120.4223,
        "meta_mean_anomaly": 239.697,
        "meta_ephemeris_type": 0,
        "meta_classification_type": "U",
        "meta_norad_cat_id": 66554,
        "meta_element_set_no": 999,
        "meta_rev_at_epoch": 424,
        "meta_bstar": 0.00037991492,
        "meta_mean_motion_dot": 0.00011636,
        "meta_mean_motion_ddot": 0,
        "tle_line1": "1 66554U 25267A   25352.20640164  .00011636  00000+0  37991-3 0  9996",
        "tle_line2": "2 66554  42.0218  25.4335 0003598 120.4223 239.6970 15.31667898  4246"
      },
      "geometry": {
        "type": "Point",
        "coordinates": [
          -3.4628278396040906,
          -20.411469118495212
        ]
      }
    },
    {
      "type": "Feature",
      "properties": {
        "norad_id": 66555,
        "name": "ELECTRON KICK STAGE R/B",
        "group": "last-30-days",
        "lat": 36.91268882669088,
        "lon": 77.25618248764759,
        "alt_km": 457.0156113106941,
        "timestamp": "2025-12-18T23:35:47.780208+00:00",
        "meta_object_name": "ELECTRON KICK STAGE R/B",
        "meta_object_id": "2025-267B",
        "meta_epoch": "2025-12-18T10:48:41.300064",
        "meta_mean_motion": 15.33080294,
        "meta_eccentricity": 0.00067503,
        "meta_inclination": 42.0197,
        "meta_ra_of_asc_node": 23.8001,
        "meta_arg_of_pericenter": 99.7764,
        "meta_mean_anomaly": 260.3837,
        "meta_ephemeris_type": 0,
        "meta_classification_type": "U",
        "meta_norad_cat_id": 66555,
        "meta_element_set_no": 999,
        "meta_rev_at_epoch": 428,
        "meta_bstar": 0.00067346636,
        "meta_mean_motion_dot": 0.00021816,
        "meta_mean_motion_ddot": 0,
        "tle_line1": "1 66555U 25267B   25352.45047801  .00021816  00000+0  67347-3 0  9992",
        "tle_line2": "2 66555  42.0197  23.8001 0006750  99.7764 260.3837 15.33080294  4284"
      },
      "geometry": {
        "type": "Point",
        "coordinates": [
          77.25618248764759,
          36.91268882669088
        ]
      }
    },
    {
      "type": "Feature",
      "properties": {
        "norad_id": 66557,
        "name": "STARLINK-35699",
        "group": "last-30-days",
        "lat": 40.40724404720462,
        "lon": 150.68206151938867,
        "alt_km": 409.76504288005617,
        "timestamp": "2025-12-18T23:35:47.780219+00:00",
        "meta_object_name": "STARLINK-35699",
        "meta_object_id": "2025-268A",
        "meta_epoch": "2025-12-18T14:00:45.448704",
        "meta_mean_motion": 15.50628111,
        "meta_eccentricity": 0.00023952,
        "meta_inclination": 43.0007,
        "meta_ra_of_asc_node": 87.022,
        "meta_arg_of_pericenter": 263.5778,
        "meta_mean_anomaly": 96.4809,
        "meta_ephemeris_type": 0,
        "meta_classification_type": "U",
        "meta_norad_cat_id": 66557,
        "meta_element_set_no": 999,
        "meta_rev_at_epoch": 553,
        "meta_bstar": 0.0019142686,
        "meta_mean_motion_dot": 0.00113809,
        "meta_mean_motion_ddot": 0,
        "tle_line1": "1 66557U 25268A   25352.58385936  .00113809  00000+0  19143-2 0  9997",
        "tle_line2": "2 66557  43.0007  87.0220 0002395 263.5778  96.4809 15.50628111  5530"
      },
      "geometry": {
        "type": "Point",
        "coordinates": [
          150.68206151938867,
          40.40724404720462
        ]
      }
    },
    {
      "type": "Feature",
      "properties": {
        "norad_id": 66558,
        "name": "STARLINK-35695",
        "group": "last-30-days",
        "lat": 40.9168191523226,
        "lon": 153.1317437596983,
        "alt_km": 409.90276347766303,
        "timestamp": "2025-12-18T23:35:47.780229+00:00",
        "meta_object_name": "STARLINK-35695",
        "meta_object_id": "2025-268B",
        "meta_epoch": "2025-12-18T14:00:15.899904",
        "meta_mean_motion": 15.50654715,
        "meta_eccentricity": 0.00028804,
        "meta_inclination": 43.0008,
        "meta_ra_of_asc_node": 87.0192,
        "meta_arg_of_pericenter": 276.3281,
        "meta_mean_anomaly": 83.7251,
        "meta_ephemeris_type": 0,
        "meta_classification_type": "U",
        "meta_norad_cat_id": 66558,
        "meta_element_set_no": 999,
        "meta_rev_at_epoch": 553,
        "meta_bstar": 0.0012082693,
        "meta_mean_motion_dot": 0.0007139,
        "meta_mean_motion_ddot": 0,
        "tle_line1": "1 66558U 25268B   25352.58351736  .00071390  00000+0  12083-2 0  9993",
        "tle_line2": "2 66558  43.0008  87.0192 0002880 276.3281  83.7251 15.50654715  5539"
      },
      "geometry": {
        "type": "Point",
        "coordinates": [
          153.1317437596983,
          40.9168191523226
        ]
      }
    },
    {
      "type": "Feature",
      "properties": {
        "norad_id": 66559,
        "name": "STARLINK-35419",
        "group": "last-30-days",
        "lat": 41.36474704000336,
        "lon": 155.56132196232645,
        "alt_km": 409.2845542684636,
        "timestamp": "2025-12-18T23:35:47.780239+00:00",
        "meta_object_name": "STARLINK-35419",
        "meta_object_id": "2025-268C",
        "meta_epoch": "2025-12-18T13:59:46.320000",
        "meta_mean_motion": 15.5062777,
        "meta_eccentricity": 0.00017564,
        "meta_inclination": 43.0017,
        "meta_ra_of_asc_node": 87.0161,
        "meta_arg_of_pericenter": 262.4163,
        "meta_mean_anomaly": 97.6498,
        "meta_ephemeris_type": 0,
        "meta_classification_type": "U",
        "meta_norad_cat_id": 66559,
        "meta_element_set_no": 999,
        "meta_rev_at_epoch": 553,
        "meta_bstar": 0.0014470576,
        "meta_mean_motion_dot": 0.00085634,
        "meta_mean_motion_ddot": 0,
        "tle_line1": "1 66559U 25268C   25352.58317500  .00085634  00000+0  14471-2 0  9994",
        "tle_line2": "2 66559  43.0017  87.0161 0001756 262.4163  97.6498 15.50627770  5530"
      },
      "geometry": {
        "type": "Point",
        "coordinates": [
          155.56132196232645,
          41.36474704000336
        ]
      }
    },
    {
      "type": "Feature",
      "properties": {
        "norad_id": 66560,
        "name": "STARLINK-35411",
        "group": "last-30-days",
        "lat": 41.759518725191775,
        "lon": 158.02907921568172,
        "alt_km": 408.948909821439,
        "timestamp": "2025-12-18T23:35:47.780249+00:00",
        "meta_object_name": "STARLINK-35411",
        "meta_object_id": "2025-268D",
        "meta_epoch": "2025-12-18T13:59:16.855008",
        "meta_mean_motion": 15.50619101,
        "meta_eccentricity": 0.00012512,
        "meta_inclination": 43.0007,
        "meta_ra_of_asc_node": 87.0147,
        "meta_arg_of_pericenter": 266.9937,
        "meta_mean_anomaly": 93.078,
        "meta_ephemeris_type": 0,
        "meta_classification_type": "U",
        "meta_norad_cat_id": 66560,
        "meta_element_set_no": 999,
        "meta_rev_at_epoch": 553,
        "meta_bstar": 0.0011242099,
        "meta_mean_motion_dot": 0.00066265,
        "meta_mean_motion_ddot": 0,
        "tle_line1": "1 66560U 25268D   25352.58283397  .00066265  00000+0  11242-2 0  9994",
        "tle_line2": "2 66560  43.0007  87.0147 0001251 266.9937  93.0780 15.50619101  5536"
      },
      "geometry": {
        "type": "Point",
        "coordinates": [
          158.02907921568172,
          41.759518725191775
        ]
      }
    },
    {
      "type": "Feature",
      "properties": {
        "norad_id": 66561,
        "name": "STARLINK-35305",
        "group": "last-30-days",
        "lat": 42.39967504606296,
        "lon": 163.1480597545933,
        "alt_km": 408.88782861304844,
        "timestamp": "2025-12-18T23:35:47.780261+00:00",
        "meta_object_name": "STARLINK-35305",
        "meta_object_id": "2025-268E",
        "meta_epoch": "2025-12-18T13:58:17.585472",
        "meta_mean_motion": 15.50630043,
        "meta_eccentricity": 0.0001391,
        "meta_inclination": 43.0006,
        "meta_ra_of_asc_node": 87.0086,
        "meta_arg_of_pericenter": 253.6895,
        "meta_mean_anomaly": 106.3812,
        "meta_ephemeris_type": 0,
        "meta_classification_type": "U",
        "meta_norad_cat_id": 66561,
        "meta_element_set_no": 999,
        "meta_rev_at_epoch": 553,
        "meta_bstar": 0.0014137753,
        "meta_mean_motion_dot": 0.00083641,
        "meta_mean_motion_ddot": 0,
        "tle_line1": "1 66561U 25268E   25352.58214798  .00083641  00000+0  14138-2 0  9998",
        "tle_line2": "2 66561  43.0006  87.0086 0001391 253.6895 106.3812 15.50630043  5531"
      },
      "geometry": {
        "type": "Point",
        "coordinates": [
          163.1480597545933,
          42.39967504606296
        ]
      }
    }
  ]
}